CCSDS_OMM_VERS = 2.0
CREATION_DATE  = 
ORIGINATOR     = 

OBJECT_NAME    = ORBVIEW 2 (SEASTAR)
OBJECT_ID      = 1997-037A
CENTER_NAME    = EARTH
REF_FRAME      = TEME
TIME_SYSTEM    = UTC
MEAN_ELEMENT_THEORY = SGP/SGP4

EPOCH          = 2025-12-01T16:37:21.999072
MEAN_MOTION    = 14.35403067
ECCENTRICITY   = .0002213
INCLINATION    = 98.8452
RA_OF_ASC_NODE = 132.4893
ARG_OF_PERICENTER = 15.1538
MEAN_ANOMALY   = 344.9713

EPHEMERIS_TYPE = 0
CLASSIFICATION_TYPE = U
NORAD_CAT_ID   = 24883
ELEMENT_SET_NO = 999
REV_AT_EPOCH   = 49441
BSTAR          = .14342E-3
MEAN_MOTION_DOT = .365E-5
MEAN_MOTION_DDOT = 0

CCSDS_OMM_VERS = 2.0
CREATION_DATE  = 
ORIGINATOR     = 

OBJECT_NAME    = SL-16 R/B
OBJECT_ID      = 1998-043G
CENTER_NAME    = EARTH
REF_FRAME      = TEME
TIME_SYSTEM    = UTC
MEAN_ELEMENT_THEORY = SGP/SGP4

EPOCH          = 2025-12-01T20:27:52.549056
MEAN_MOTION    = 14.26021180
ECCENTRICITY   = .0008939
INCLINATION    = 98.8107
RA_OF_ASC_NODE = 283.6107
ARG_OF_PERICENTER = 301.9766
MEAN_ANOMALY   = 58.0544

EPHEMERIS_TYPE = 0
CLASSIFICATION_TYPE = U
NORAD_CAT_ID   = 25400
ELEMENT_SET_NO = 999
REV_AT_EPOCH   = 42504
BSTAR          = .57554E-4
MEAN_MOTION_DOT = .92E-6
MEAN_MOTION_DDOT = 0

CCSDS_OMM_VERS = 2.0
CREATION_DATE  = 
ORIGINATOR     = 

OBJECT_NAME    = SL-16 R/B
OBJECT_ID      = 1998-045B
CENTER_NAME    = EARTH
REF_FRAME      = TEME
TIME_SYSTEM    = UTC
MEAN_ELEMENT_THEORY = SGP/SGP4

EPOCH          = 2025-12-01T14:30:33.958080
MEAN_MOTION    = 14.16174390
ECCENTRICITY   = .0007579
INCLINATION    = 71.0126
RA_OF_ASC_NODE = 27.8441
ARG_OF_PERICENTER = 193.4212
MEAN_ANOMALY   = 166.6711

EPHEMERIS_TYPE = 0
CLASSIFICATION_TYPE = U
NORAD_CAT_ID   = 25407
ELEMENT_SET_NO = 999
REV_AT_EPOCH   = 41321
BSTAR          = .11807E-3
MEAN_MOTION_DOT = .186E-5
MEAN_MOTION_DDOT = 0

CCSDS_OMM_VERS = 2.0
CREATION_DATE  = 
ORIGINATOR     = 

OBJECT_NAME    = ISS (ZARYA)
OBJECT_ID      = 1998-067A
CENTER_NAME    = EARTH
REF_FRAME      = TEME
TIME_SYSTEM    = UTC
MEAN_ELEMENT_THEORY = SGP/SGP4

EPOCH          = 2025-12-01T13:49:44.444640
MEAN_MOTION    = 15.49226524
ECCENTRICITY   = .0003647
INCLINATION    = 51.6309
RA_OF_ASC_NODE = 197.7449
ARG_OF_PERICENTER = 190.9481
MEAN_ANOMALY   = 169.1428

EPHEMERIS_TYPE = 0
CLASSIFICATION_TYPE = U
NORAD_CAT_ID   = 25544
ELEMENT_SET_NO = 999
REV_AT_EPOCH   = 54112
BSTAR          = .16366E-3
MEAN_MOTION_DOT = .8648E-4
MEAN_MOTION_DDOT = 0

CCSDS_OMM_VERS = 2.0
CREATION_DATE  = 
ORIGINATOR     = 

OBJECT_NAME    = CZ-4B R/B
OBJECT_ID      = 1999-025C
CENTER_NAME    = EARTH
REF_FRAME      = TEME
TIME_SYSTEM    = UTC
MEAN_ELEMENT_THEORY = SGP/SGP4

EPOCH          = 2025-12-01T18:04:24.103200
MEAN_MOTION    = 14.18239201
ECCENTRICITY   = .0036078
INCLINATION    = 98.6785
RA_OF_ASC_NODE = 17.2781
ARG_OF_PERICENTER = 266.4665
MEAN_ANOMALY   = 203.6612

EPHEMERIS_TYPE = 0
CLASSIFICATION_TYPE = U
NORAD_CAT_ID   = 25732
ELEMENT_SET_NO = 999
REV_AT_EPOCH   = 37428
BSTAR          = .75217E-4
MEAN_MOTION_DOT = .112E-5
MEAN_MOTION_DDOT = 0

CCSDS_OMM_VERS = 2.0
CREATION_DATE  = 
ORIGINATOR     = 

OBJECT_NAME    = OKEAN-O
OBJECT_ID      = 1999-039A
CENTER_NAME    = EARTH
REF_FRAME      = TEME
TIME_SYSTEM    = UTC
MEAN_ELEMENT_THEORY = SGP/SGP4

EPOCH          = 2025-12-01T18:29:26.863584
MEAN_MOTION    = 14.80129893
ECCENTRICITY   = .0000867
INCLINATION    = 97.9618
RA_OF_ASC_NODE = 31.5663
ARG_OF_PERICENTER = 75.8942
MEAN_ANOMALY   = 284.2366

EPHEMERIS_TYPE = 0
CLASSIFICATION_TYPE = U
NORAD_CAT_ID   = 25860
ELEMENT_SET_NO = 999
REV_AT_EPOCH   = 41990
BSTAR          = .11888E-3
MEAN_MOTION_DOT = .85E-5
MEAN_MOTION_DDOT = 0

CCSDS_OMM_VERS = 2.0
CREATION_DATE  = 
ORIGINATOR     = 

OBJECT_NAME    = SL-16 R/B
OBJECT_ID      = 1999-039B
CENTER_NAME    = EARTH
REF_FRAME      = TEME
TIME_SYSTEM    = UTC
MEAN_ELEMENT_THEORY = SGP/SGP4

EPOCH          = 2025-12-01T15:23:03.156000
MEAN_MOTION    = 14.81559671
ECCENTRICITY   = .001412
INCLINATION    = 98.0143
RA_OF_ASC_NODE = 29.7909
ARG_OF_PERICENTER = 211.2132
MEAN_ANOMALY   = 148.8243

EPHEMERIS_TYPE = 0
CLASSIFICATION_TYPE = U
NORAD_CAT_ID   = 25861
ELEMENT_SET_NO = 999
REV_AT_EPOCH   = 42234
BSTAR          = .97574E-4
MEAN_MOTION_DOT = .713E-5
MEAN_MOTION_DDOT = 0

CCSDS_OMM_VERS = 2.0
CREATION_DATE  = 
ORIGINATOR     = 

OBJECT_NAME    = DELTA 2 R/B
OBJECT_ID      = 1999-041E
CENTER_NAME    = EARTH
REF_FRAME      = TEME
TIME_SYSTEM    = UTC
MEAN_ELEMENT_THEORY = SGP/SGP4

EPOCH          = 2025-12-01T09:12:22.624416
MEAN_MOTION    = 14.11353211
ECCENTRICITY   = .0504853
INCLINATION    = 51.7620
RA_OF_ASC_NODE = 333.7773
ARG_OF_PERICENTER = 58.3008
MEAN_ANOMALY   = 306.6127

EPHEMERIS_TYPE = 0
CLASSIFICATION_TYPE = U
NORAD_CAT_ID   = 25876
ELEMENT_SET_NO = 999
REV_AT_EPOCH   = 34914
BSTAR          = .26467E-3
MEAN_MOTION_DOT = .1398E-4
MEAN_MOTION_DDOT = 0

CCSDS_OMM_VERS = 2.0
CREATION_DATE  = 
ORIGINATOR     = 

OBJECT_NAME    = HELIOS 1B
OBJECT_ID      = 1999-064A
CENTER_NAME    = EARTH
REF_FRAME      = TEME
TIME_SYSTEM    = UTC
MEAN_ELEMENT_THEORY = SGP/SGP4

EPOCH          = 2025-12-01T15:14:34.075968
MEAN_MOTION    = 14.87205600
ECCENTRICITY   = .0002218
INCLINATION    = 98.1755
RA_OF_ASC_NODE = 229.9716
ARG_OF_PERICENTER = 57.4173
MEAN_ANOMALY   = 302.7256

EPHEMERIS_TYPE = 0
CLASSIFICATION_TYPE = U
NORAD_CAT_ID   = 25977
ELEMENT_SET_NO = 999
REV_AT_EPOCH   = 67068
BSTAR          = .23434E-3
MEAN_MOTION_DOT = .2051E-4
MEAN_MOTION_DDOT = 0

CCSDS_OMM_VERS = 2.0
CREATION_DATE  = 
ORIGINATOR     = 

OBJECT_NAME    = TERRA
OBJECT_ID      = 1999-068A
CENTER_NAME    = EARTH
REF_FRAME      = TEME
TIME_SYSTEM    = UTC
MEAN_ELEMENT_THEORY = SGP/SGP4

EPOCH          = 2025-12-01T18:52:00.717888
MEAN_MOTION    = 14.60931484
ECCENTRICITY   = .0003363
INCLINATION    = 97.9765
RA_OF_ASC_NODE = 27.8716
ARG_OF_PERICENTER = 119.9837
MEAN_ANOMALY   = 356.3412

EPHEMERIS_TYPE = 0
CLASSIFICATION_TYPE = U
NORAD_CAT_ID   = 25994
ELEMENT_SET_NO = 999
REV_AT_EPOCH   = 38078
BSTAR          = .12463E-3
MEAN_MOTION_DOT = .566E-5
MEAN_MOTION_DDOT = 0

CCSDS_OMM_VERS = 2.0
CREATION_DATE  = 
ORIGINATOR     = 

OBJECT_NAME    = SL-16 R/B
OBJECT_ID      = 2000-006B
CENTER_NAME    = EARTH
REF_FRAME      = TEME
TIME_SYSTEM    = UTC
MEAN_ELEMENT_THEORY = SGP/SGP4

EPOCH          = 2025-12-01T09:10:55.306848
MEAN_MOTION    = 14.15806057
ECCENTRICITY   = .0017816
INCLINATION    = 71.0026
RA_OF_ASC_NODE = 304.5372
ARG_OF_PERICENTER = 324.5563
MEAN_ANOMALY   = 35.4374

EPHEMERIS_TYPE = 0
CLASSIFICATION_TYPE = U
NORAD_CAT_ID   = 26070
ELEMENT_SET_NO = 999
REV_AT_EPOCH   = 33464
BSTAR          = .20274E-3
MEAN_MOTION_DOT = .351E-5
MEAN_MOTION_DDOT = 0

CCSDS_OMM_VERS = 2.0
CREATION_DATE  = 
ORIGINATOR     = 

OBJECT_NAME    = TITAN 4B R/B
OBJECT_ID      = 2000-047B
CENTER_NAME    = EARTH
REF_FRAME      = TEME
TIME_SYSTEM    = UTC
MEAN_ELEMENT_THEORY = SGP/SGP4

EPOCH          = 2025-12-01T17:42:43.934400
MEAN_MOTION    = 15.08649658
ECCENTRICITY   = .0039773
INCLINATION    = 67.9897
RA_OF_ASC_NODE = 315.7511
ARG_OF_PERICENTER = 157.5681
MEAN_ANOMALY   = 202.7218

EPHEMERIS_TYPE = 0
CLASSIFICATION_TYPE = U
NORAD_CAT_ID   = 26474
ELEMENT_SET_NO = 999
REV_AT_EPOCH   = 37813
BSTAR          = .24927E-3
MEAN_MOTION_DOT = .3849E-4
MEAN_MOTION_DDOT = 0

