ORBVIEW 2 (SEASTAR)     
1 24883U 97037A   25335.69261573  .00000365  00000+0  14342-3 0  9998
2 24883  98.8452 132.4893 0002213  15.1538 344.9713 14.35403067494410
SL-16 R/B               
1 25400U 98043G   25335.85269154  .00000092  00000+0  57554-4 0  9993
2 25400  98.8107 283.6107 0008939 301.9766  58.0544 14.26021180425040
SL-16 R/B               
1 25407U 98045B   25335.60455970  .00000186  00000+0  11807-3 0  9992
2 25407  71.0126  27.8441 0007579 193.4212 166.6711 14.16174390413218
ISS (ZARYA)             
1 25544U 98067A   25335.57620885  .00008648  00000+0  16366-3 0  9999
2 25544  51.6309 197.7449 0003647 190.9481 169.1428 15.49226524541123
CZ-4B R/B               
1 25732U 99025C   25335.75305675  .00000112  00000+0  75217-4 0  9999
2 25732  98.6785  17.2781 0036078 266.4665 203.6612 14.18239201374284
OKEAN-O                 
1 25860U 99039A   25335.77044981  .00000850  00000+0  11888-3 0  9990
2 25860  97.9618  31.5663 0000867  75.8942 284.2366 14.80129893419902
SL-16 R/B               
1 25861U 99039B   25335.64100875  .00000713  00000+0  97574-4 0  9997
2 25861  98.0143  29.7909 0014120 211.2132 148.8243 14.81559671422347
DELTA 2 R/B             
1 25876U 99041E   25335.38359519  .00001398  00000+0  26467-3 0  9990
2 25876  51.7620 333.7773 0504853  58.3008 306.6127 14.11353211349141
HELIOS 1B               
1 25977U 99064A   25335.63511662  .00002051  00000+0  23434-3 0  9992
2 25977  98.1755 229.9716 0002218  57.4173 302.7256 14.87205600670688
TERRA                   
1 25994U 99068A   25335.78611942  .00000566  00000+0  12463-3 0  9992
2 25994  97.9765  27.8716 0003363 119.9837 356.3412 14.60931484380788
SL-16 R/B               
1 26070U 00006B   25335.38258457  .00000351  00000+0  20274-3 0  9997
2 26070  71.0026 304.5372 0017816 324.5563  35.4374 14.15806057334641
TITAN 4B R/B            
1 26474U 00047B   25335.73800850  .00003849  00000+0  24927-3 0  9993
2 26474  67.9897 315.7511 0039773 157.5681 202.7218 15.08649658378132
